NORAD_CAT_ID,OBJECT_NAME,OBJECT_TYPE,EPOCH,MEAN_MOTION,ECCENTRICITY,INCLINATION,RA_OF_ASC_NODE,ARG_OF_PERICENTER,MEAN_ANOMALY,BSTAR,MEAN_MOTION_DOT,MEAN_MOTION_DDOT,TLE_LINE0,TLE_LINE1,TLE_LINE2,SEMIMAJOR_AXIS,PERIOD,APOGEE,PERIGEE,DECAYED
55673.0,STARLINK-5463,PAYLOAD,2023-10-07 00:46:28,14.9832725,0.0003068,70.0003,234.895,271.3262,88.7545,7.0075e-06,-9e-08,0.0,0 STARLINK-5463,1 55673U 23021AX  23280.03227325 -.00000009  00000-0  70075-5 0  9997,2 55673  70.0003 234.8950 0003068 271.3262  88.7545 14.98327250 36770,6950.201,96.107,574.199,569.934,0.0
55673.0,STARLINK-5463,PAYLOAD,2023-10-07 21:36:13,14.98325057,0.0003153,70.0005,232.7069,271.9116,88.1681,2.197e-05,1.69e-06,0.0,0 STARLINK-5463,1 55673U 23021AX  23280.90015438  .00000169  00000-0  21970-4 0  9998,2 55673  70.0005 232.7069 0003153 271.9116  88.1681 14.98325057 36902,6950.208,96.107,574.265,569.882,0.0
55673.0,STARLINK-5463,PAYLOAD,2023-10-08 02:24:37,14.98326757,0.0003147,70.0007,232.2019,271.6018,88.478,3.7381e-05,3.53e-06,0.0,0 STARLINK-5463,1 55673U 23021AX  23281.10043333  .00000353  00000-0  37381-4 0  9994,2 55673  70.0007 232.2019 0003147 271.6018  88.4780 14.98326757 36636,6950.203,96.107,574.255,569.881,0.0
55673.0,STARLINK-5463,PAYLOAD,2023-10-08 07:13:00,14.98339192,0.0003196,70.0004,231.6971,271.0726,89.0067,0.00015312,1.735e-05,0.0,0 STARLINK-5463,1 55673U 23021AX  23281.30070164  .00001735  00000-0  15312-3 0  9992,2 55673  70.0004 231.6971 0003196 271.0726  89.0067 14.98339192 36662,6950.164,96.106,574.251,569.808,0.0
55673.0,STARLINK-5463,PAYLOAD,2023-10-08 21:38:13,14.98330435,0.0002858,70.001,230.1834,271.7779,88.3052,4.8051e-05,4.8e-06,0.0,0 STARLINK-5463,1 55673U 23021AX  23281.90154906  .00000480  00000-0  48051-4 0  9998,2 55673  70.0010 230.1834 0002858 271.7779  88.3052 14.98330435 37051,6950.192,96.107,574.043,570.07,0.0
55673.0,STARLINK-5463,PAYLOAD,2023-10-09 02:26:37,14.98331377,0.0002808,70.0009,229.6773,266.1066,93.9772,5.6955e-05,5.87e-06,0.0,0 STARLINK-5463,1 55673U 23021AX  23282.10182758  .00000587  00000-0  56955-4 0  9997,2 55673  70.0009 229.6773 0002808 266.1066  93.9772 14.98331377 36782,6950.189,96.107,574.005,570.102,0.0
55673.0,STARLINK-5463,PAYLOAD,2023-10-09 13:39:34,14.9832791,0.000244,70.0018,228.4992,290.6898,69.3999,2.6763e-05,2.26e-06,0.0,0 STARLINK-5463,1 55673U 23021AX  23282.56915277  .00000226  00000-0  26763-4 0  9991,2 55673  70.0018 228.4992 0002440 290.6898  69.3999 14.98327910 37157,6950.199,96.107,573.76,570.369,0.0
55673.0,STARLINK-5463,PAYLOAD,2023-10-09 21:40:15,14.98329298,0.0002676,70.0013,227.6596,269.3914,90.6939,-3.5346e-05,-5.15e-06,0.0,0 STARLINK-5463,1 55673U 23021AX  23282.90295187 -.00000515  00000-0 -35346-4 0  9990,2 55673  70.0013 227.6596 0002676 269.3914  90.6939 14.98329298 37204,6950.195,96.107,573.92,570.2,0.0
55673.0,STARLINK-5463,PAYLOAD,2023-10-10 02:28:39,14.98327672,0.000273,70.0013,227.1547,269.5274,90.5572,-5.4362e-05,-7.41e-06,0.0,0 STARLINK-5463,1 55673U 23021AX  23283.10323342 -.00000741  00000-0 -54362-4 0  9998,2 55673  70.0013 227.1547 0002730 269.5274  90.5572 14.98327672 36932,6950.2,96.107,573.962,570.168,0.0
55673.0,STARLINK-5463,PAYLOAD,2023-10-10 07:17:03,14.98331418,0.000263,70.0016,226.6493,269.1028,90.9829,8.1776e-06,5e-08,0.0,0 STARLINK-5463,1 55673U 23021AX  23283.30350919  .00000005  00000-0  81776-5 0  9991,2 55673  70.0016 226.6493 0002630 269.1028  90.9829 14.98331418 37260,6950.189,96.107,573.881,570.226,0.0
55673.0,STARLINK-5463,PAYLOAD,2023-10-10 21:42:16,14.98326673,0.0002315,70.0018,225.1343,254.9861,105.1042,-5.8928e-05,-7.96e-06,0.0,0 STARLINK-5463,1 55673U 23021AX  23283.90435291 -.00000796  00000-0 -58928-4 0  9995,2 55673  70.0018 225.1343 0002315 254.9861 105.1042 14.98326673 37350,6950.203,96.107,573.677,570.459,0.0
55673.0,STARLINK-5463,PAYLOAD,2023-10-11 02:30:40,14.98323864,0.0002549,70.0016,224.6291,260.4827,99.6044,-7.2167e-05,-9.54e-06,0.0,0 STARLINK-5463,1 55673U 23021AX  23284.10463554 -.00000954  00000-0 -72167-4 0  9998,2 55673  70.0016 224.6291 0002549 260.4827  99.6044 14.98323864 37085,6950.212,96.107,573.848,570.305,0.0
55673.0,STARLINK-5463,PAYLOAD,2023-10-11 13:43:37,14.98323615,0.0002194,70.0024,223.4498,275.2243,84.8666,-4.3336e-05,-6.1e-06,0.0,0 STARLINK-5463,1 55673U 23021AX  23284.57195784 -.00000610  00000-0 -43336-4 0  9991,2 55673  70.0024 223.4498 0002194 275.2243  84.8666 14.98323615 37453,6950.213,96.107,573.603,570.553,0.0
55673.0,STARLINK-5463,PAYLOAD,2023-10-12 04:08:49,14.98329907,0.0002721,70.0008,221.9347,267.1818,92.9029,5.8327e-05,6.03e-06,0.0,0 STARLINK-5463,1 55673U 23021AX  23285.17279049  .00000603  00000-0  58327-4 0  9991,2 55673  70.0008 221.9347 0002721 267.1818  92.9029 14.98329907 37245,6950.193,96.107,573.949,570.167,0.0
55673.0,STARLINK-5463,PAYLOAD,2023-10-12 05:44:57,14.98331355,0.0002667,70.001,221.7664,265.9316,94.1538,8.6146e-05,9.35e-06,0.0,0 STARLINK-5463,1 55673U 23021AX  23285.23954884  .00000935  00000-0  86146-4 0  9993,2 55673  70.0010 221.7664 0002667 265.9316  94.1538 14.98331355 37559,6950.189,96.107,573.907,570.2,0.0
55673.0,STARLINK-5463,PAYLOAD,2023-10-12 21:46:17,14.98326566,0.0002784,70.0011,220.0844,264.9978,95.0863,8.6905e-05,9.44e-06,0.0,0 STARLINK-5463,1 55673U 23021AX  23285.90715175  .00000944  00000-0  86905-4 0  9998,2 55673  70.0011 220.0844 0002784 264.9978  95.0863 14.98326566 37655,6950.204,96.107,574.003,570.134,0.0
55673.0,STARLINK-5463,PAYLOAD,2023-10-13 04:10:49,14.98329715,0.0002564,70.0014,219.411,263.857,96.2297,0.00011327,1.259e-05,0.0,0 STARLINK-5463,1 55673U 23021AX  23286.17418956  .00001259  00000-0  11327-3 0  9990,2 55673  70.0014 219.4110 0002564 263.8570  96.2297 14.98329715 37392,6950.194,96.107,573.841,570.277,0.0
55673.0,STARLINK-5463,PAYLOAD,2023-10-13 05:46:57,14.98331659,0.0002689,70.0017,219.2432,267.931,92.1541,0.00012762,1.43e-05,0.0,0 STARLINK-5463,1 55673U 23021AX  23286.24094795  .00001430  00000-0  12762-3 0  9994,2 55673  70.0017 219.2432 0002689 267.9310  92.1541 14.98331659 37707,6950.188,96.107,573.922,570.184,0.0
55673.0,STARLINK-5463,PAYLOAD,2023-10-13 21:48:18,14.98332683,0.0002789,70.0014,217.5601,269.4186,90.6654,7.4463e-05,7.96e-06,0.0,0 STARLINK-5463,1 55673U 23021AX  23286.90854683  .00000796  00000-0  74463-4 0  9998,2 55673  70.0014 217.5601 0002789 269.4186  90.6654 14.98332683 37809,6950.185,96.107,573.988,570.111,0.0
55673.0,STARLINK-5463,PAYLOAD,2023-10-14 04:12:50,14.98338807,0.0002649,70.0019,216.889,253.1384,106.9485,0.00011167,1.24e-05,0.0,0 STARLINK-5463,1 55673U 23021AX  23287.17557995  .00001240  00000-0  11167-3 0  9990,2 55673  70.0019 216.8890 0002649 253.1384 106.9485 14.98338807 37549,6950.166,96.106,573.872,570.19,0.0
55673.0,STARLINK-5463,PAYLOAD,2023-10-14 12:13:31,14.98328854,0.0002838,70.0015,216.0447,269.763,90.3204,-7.5089e-05,-9.89e-06,0.0,0 STARLINK-5463,1 55673U 23021AX  23287.50938995 -.00000989  00000-0 -75089-4 0  9995,2 55673  70.0015 216.0447 0002838 269.7630  90.3204 14.98328854 37896,6950.196,96.107,574.034,570.089,0.0
55673.0,STARLINK-5463,PAYLOAD,2023-10-14 20:14:13,14.98312252,0.000285,70.0012,215.2042,261.866,98.2175,-0.00024654,-3.032e-05,0.0,0 STARLINK-5463,1 55673U 23021AX  23287.84320646 -.00003032  00000-0 -24654-3 0  9993,2 55673  70.0012 215.2042 0002850 261.8660  98.2175 14.98312252 37647,6950.248,96.108,574.094,570.132,0.0
55673.0,STARLINK-5463,PAYLOAD,2023-10-14 21:50:21,14.9831244,0.0002786,70.0013,215.0357,261.2393,98.8451,-0.00022255,-2.746e-05,0.0,0 STARLINK-5463,1 55673U 23021AX  23287.90996621 -.00002746  00000-0 -22255-3 0  9998,2 55673  70.0013 215.0357 0002786 261.2393  98.8451 14.98312440 37956,6950.247,96.108,574.049,570.176,0.0
55673.0,STARLINK-5463,PAYLOAD,2023-10-15 12:15:33,14.98325787,0.00027,70.0017,213.5206,267.4941,92.5909,-0.00013475,-1.7e-05,0.0,0 STARLINK-5463,1 55673U 23021AX  23288.51079996 -.00001700  00000-0 -13475-3 0  9996,2 55673  70.0017 213.5206 0002700 267.4941  92.5909 14.98325787 37743,6950.206,96.107,573.947,570.194,0.0
55673.0,STARLINK-5463,PAYLOAD,2023-10-15 20:16:12,14.98332907,0.0003023,70.0011,212.679,269.8183,90.263,2.908e-05,2.54e-06,0.0,0 STARLINK-5463,1 55673U 23021AX  23288.84459080  .00000254  00000-0  29080-4 0  9999,2 55673  70.0011 212.6790 0003023 269.8183  90.2630 14.98332907 37791,6950.184,96.107,574.15,569.948,0.0
55673.0,STARLINK-5463,PAYLOAD,2023-10-15 21:52:20,14.98335716,0.0002808,70.0012,212.5109,263.3852,96.6987,-2.3702e-06,-1.21e-06,0.0,0 STARLINK-5463,1 55673U 23021AX  23288.91134992 -.00000121  00000-0 -23702-5 0  9990,2 55673  70.0012 212.5109 0002808 263.3852  96.6987 14.98335716 38109,6950.175,96.107,573.992,570.089,0.0
55673.0,STARLINK-5463,PAYLOAD,2023-10-16 05:53:00,14.98338614,0.0003009,70.001,211.668,269.3246,90.7568,0.00010919,1.21e-05,0.0,0 STARLINK-5463,1 55673U 23021AX  23289.24514380  .00001210  00000-0  10919-3 0  9992,2 55673  70.0010 211.6680 0003009 269.3246  90.7568 14.98338614 37859,6950.166,96.106,574.123,569.94,0.0
55673.0,STARLINK-5463,PAYLOAD,2023-10-16 12:17:33,14.98338638,0.0002334,70.0024,210.9946,277.0637,83.0256,-3.9036e-05,-5.59e-06,0.0,0 STARLINK-5463,1 55673U 23021AX  23289.51218859 -.00000559  00000-0 -39036-4 0  9993,2 55673  70.0024 210.9946 0002334 277.0637  83.0256 14.98338638 38194,6950.166,96.106,573.653,570.409,0.0
55673.0,STARLINK-5463,PAYLOAD,2023-10-17 12:19:34,14.98325244,0.0002387,70.0029,208.469,272.6482,87.4403,0.00014554,1.644e-05,0.0,0 STARLINK-5463,1 55673U 23021AX  23290.51359406  .00001644  00000-0  14554-3 0  9990,2 55673  70.0029 208.4690 0002387 272.6482  87.4403 14.98325244 38049,6950.208,96.107,573.732,570.414,0.0
55673.0,STARLINK-5463,PAYLOAD,2023-10-18 02:44:46,14.9833539,0.0002741,70.0016,206.955,264.035,96.0496,-4.2686e-05,-6.02e-06,0.0,0 STARLINK-5463,1 55673U 23021AX  23291.11442941 -.00000602  00000-0 -42686-4 0  9997,2 55673  70.0016 206.9550 0002741 264.0350  96.0496 14.98335390 38430,6950.176,96.107,573.946,570.136,0.0
